<?xml version="1.0" encoding="UTF-8"?>
<gpx version="1.1" creator="GPS Visualizer Sandbox https://www.gpsvisualizer.com/draw/" xmlns="http://www.topografix.com/GPX/1/1" xmlns:xsi="http://www.w3.org/2001/XMLSchema-instance" xsi:schemaLocation="http://www.topografix.com/GPX/1/1 http://www.topografix.com/GPX/1/1/gpx.xsd">
	<trk>
		<name>차탄천_에움길_차탄천_주상절리_트레킹코스</name>
		<desc>Length: 9.491 km (5.897 mi)</desc>
		<trkseg>
			<trkpt lat="38.0877506" lon="127.0718991"></trkpt>
			<trkpt lat="38.0869124" lon="127.072793"></trkpt>
			<trkpt lat="38.0864954" lon="127.073205"></trkpt>
			<trkpt lat="38.0861197" lon="127.0726299"></trkpt>
			<trkpt lat="38.0856199" lon="127.072109"></trkpt>
			<trkpt lat="38.0852073" lon="127.0717137"></trkpt>
			<trkpt lat="38.0846571" lon="127.0712706"></trkpt>
			<trkpt lat="38.0842332" lon="127.0710233"></trkpt>
			<trkpt lat="38.0837815" lon="127.0707858"></trkpt>
			<trkpt lat="38.0830808" lon="127.0706617"></trkpt>
			<trkpt lat="38.082588" lon="127.0705367"></trkpt>
			<trkpt lat="38.0813931" lon="127.0704897"></trkpt>
			<trkpt lat="38.080857" lon="127.0704353"></trkpt>
			<trkpt lat="38.0803568" lon="127.0700596"></trkpt>
			<trkpt lat="38.0799851" lon="127.0696826"></trkpt>
			<trkpt lat="38.0797591" lon="127.0694268"></trkpt>
			<trkpt lat="38.07934" lon="127.0691617"></trkpt>
			<trkpt lat="38.07873" lon="127.0688716"></trkpt>
			<trkpt lat="38.0782676" lon="127.0687462"></trkpt>
			<trkpt lat="38.0775567" lon="127.0685958"></trkpt>
			<trkpt lat="38.0768955" lon="127.0682586"></trkpt>
			<trkpt lat="38.0762189" lon="127.0681693"></trkpt>
			<trkpt lat="38.0755862" lon="127.0681047"></trkpt>
			<trkpt lat="38.0750418" lon="127.0682645"></trkpt>
			<trkpt lat="38.0746082" lon="127.0688755"></trkpt>
			<trkpt lat="38.0741767" lon="127.0693279"></trkpt>
			<trkpt lat="38.0737529" lon="127.0694877"></trkpt>
			<trkpt lat="38.0730412" lon="127.0693902"></trkpt>
			<trkpt lat="38.0725392" lon="127.069315"></trkpt>
			<trkpt lat="38.0720137" lon="127.0691496"></trkpt>
			<trkpt lat="38.0714204" lon="127.0689371"></trkpt>
			<trkpt lat="38.0709445" lon="127.068858"></trkpt>
			<trkpt lat="38.0706292" lon="127.0688689"></trkpt>
			<trkpt lat="38.0701056" lon="127.0685685"></trkpt>
			<trkpt lat="38.0695734" lon="127.0679247"></trkpt>
			<trkpt lat="38.0692271" lon="127.0672166"></trkpt>
			<trkpt lat="38.0690329" lon="127.0667124"></trkpt>
			<trkpt lat="38.0685683" lon="127.0663905"></trkpt>
			<trkpt lat="38.0679855" lon="127.0663798"></trkpt>
			<trkpt lat="38.067901" lon="127.0662081"></trkpt>
			<trkpt lat="38.0676899" lon="127.0661438"></trkpt>
			<trkpt lat="38.0672084" lon="127.0659935"></trkpt>
			<trkpt lat="38.0667523" lon="127.0658326"></trkpt>
			<trkpt lat="38.0663131" lon="127.065618"></trkpt>
			<trkpt lat="38.0659245" lon="127.0654142"></trkpt>
			<trkpt lat="38.0654768" lon="127.0649421"></trkpt>
			<trkpt lat="38.0650545" lon="127.0643628"></trkpt>
			<trkpt lat="38.0645983" lon="127.0639336"></trkpt>
			<trkpt lat="38.0642098" lon="127.0637298"></trkpt>
			<trkpt lat="38.0638719" lon="127.0637727"></trkpt>
			<trkpt lat="38.063677" lon="127.0640235"></trkpt>
			<trkpt lat="38.0634495" lon="127.0644271"></trkpt>
			<trkpt lat="38.0630779" lon="127.0647597"></trkpt>
			<trkpt lat="38.0626595" lon="127.0648051"></trkpt>
			<trkpt lat="38.0620149" lon="127.0650862"></trkpt>
			<trkpt lat="38.061558" lon="127.0649477"></trkpt>
			<trkpt lat="38.0613717" lon="127.0641827"></trkpt>
			<trkpt lat="38.0615067" lon="127.0633435"></trkpt>
			<trkpt lat="38.0615743" lon="127.0627642"></trkpt>
			<trkpt lat="38.0611941" lon="127.0624638"></trkpt>
			<trkpt lat="38.0613273" lon="127.0617626"></trkpt>
			<trkpt lat="38.0612674" lon="127.061196"></trkpt>
			<trkpt lat="38.0612886" lon="127.0605682"></trkpt>
			<trkpt lat="38.0611484" lon="127.0598143"></trkpt>
			<trkpt lat="38.0608016" lon="127.0593282"></trkpt>
			<trkpt lat="38.060324" lon="127.0592451"></trkpt>
			<trkpt lat="38.0596668" lon="127.0594708"></trkpt>
			<trkpt lat="38.0591498" lon="127.0591872"></trkpt>
			<trkpt lat="38.0583951" lon="127.0587704"></trkpt>
			<trkpt lat="38.0578239" lon="127.058273"></trkpt>
			<trkpt lat="38.0573029" lon="127.0578567"></trkpt>
			<trkpt lat="38.0567799" lon="127.0577617"></trkpt>
			<trkpt lat="38.0562162" lon="127.0575644"></trkpt>
			<trkpt lat="38.0557571" lon="127.0575455"></trkpt>
			<trkpt lat="38.0550959" lon="127.0575683"></trkpt>
			<trkpt lat="38.0544406" lon="127.0577183"></trkpt>
			<trkpt lat="38.053845" lon="127.058022"></trkpt>
			<trkpt lat="38.053439" lon="127.0580757"></trkpt>
			<trkpt lat="38.0529406" lon="127.0580971"></trkpt>
			<trkpt lat="38.0524202" lon="127.0579789"></trkpt>
			<trkpt lat="38.0517678" lon="127.057853"></trkpt>
			<trkpt lat="38.0511787" lon="127.0577619"></trkpt>
			<trkpt lat="38.0505833" lon="127.0576213"></trkpt>
			<trkpt lat="38.0500348" lon="127.0577907"></trkpt>
			<trkpt lat="38.0491872" lon="127.0584318"></trkpt>
			<trkpt lat="38.0487305" lon="127.0585795"></trkpt>
			<trkpt lat="38.048251" lon="127.058223"></trkpt>
			<trkpt lat="38.047775" lon="127.0581633"></trkpt>
			<trkpt lat="38.0474873" lon="127.0577204"></trkpt>
			<trkpt lat="38.0471233" lon="127.0571067"></trkpt>
			<trkpt lat="38.0469336" lon="127.0564127"></trkpt>
			<trkpt lat="38.0464351" lon="127.0563269"></trkpt>
			<trkpt lat="38.0462914" lon="127.0557261"></trkpt>
			<trkpt lat="38.0458436" lon="127.0555007"></trkpt>
			<trkpt lat="38.0454296" lon="127.0558441"></trkpt>
			<trkpt lat="38.0452853" lon="127.0563961"></trkpt>
			<trkpt lat="38.0450156" lon="127.0574641"></trkpt>
			<trkpt lat="38.0443397" lon="127.0577753"></trkpt>
			<trkpt lat="38.0440101" lon="127.0582259"></trkpt>
			<trkpt lat="38.0436335" lon="127.0585844"></trkpt>
			<trkpt lat="38.0431387" lon="127.0588456"></trkpt>
			<trkpt lat="38.0425643" lon="127.0590405"></trkpt>
			<trkpt lat="38.041917" lon="127.0591262"></trkpt>
			<trkpt lat="38.0408481" lon="127.0587492"></trkpt>
			<trkpt lat="38.0401514" lon="127.0584103"></trkpt>
			<trkpt lat="38.0395854" lon="127.058241"></trkpt>
			<trkpt lat="38.0391496" lon="127.0578193"></trkpt>
			<trkpt lat="38.0386319" lon="127.057207"></trkpt>
			<trkpt lat="38.0382936" lon="127.0567964"></trkpt>
			<trkpt lat="38.0381273" lon="127.056213"></trkpt>
			<trkpt lat="38.0376897" lon="127.0558548"></trkpt>
			<trkpt lat="38.0372588" lon="127.055372"></trkpt>
			<trkpt lat="38.0367687" lon="127.0548677"></trkpt>
			<trkpt lat="38.0364898" lon="127.0544171"></trkpt>
			<trkpt lat="38.0360335" lon="127.0536017"></trkpt>
			<trkpt lat="38.0355687" lon="127.0530546"></trkpt>
			<trkpt lat="38.0352698" lon="127.0525996"></trkpt>
			<trkpt lat="38.0346985" lon="127.0519149"></trkpt>
			<trkpt lat="38.0343122" lon="127.0515949"></trkpt>
			<trkpt lat="38.0335738" lon="127.0510224"></trkpt>
			<trkpt lat="38.0329677" lon="127.0508598"></trkpt>
			<trkpt lat="38.0322894" lon="127.0506497"></trkpt>
			<trkpt lat="38.0315486" lon="127.0502512"></trkpt>
			<trkpt lat="38.0309301" lon="127.0499453"></trkpt>
			<trkpt lat="38.0305269" lon="127.0497096"></trkpt>
			<trkpt lat="38.0300589" lon="127.049793"></trkpt>
			<trkpt lat="38.0298344" lon="127.0499587"></trkpt>
			<trkpt lat="38.0287775" lon="127.0498855"></trkpt>
			<trkpt lat="38.0283332" lon="127.0500014"></trkpt>
			<trkpt lat="38.0276274" lon="127.0504211"></trkpt>
			<trkpt lat="38.0269657" lon="127.0508931"></trkpt>
			<trkpt lat="38.0264085" lon="127.0515279"></trkpt>
			<trkpt lat="38.0261295" lon="127.0521036"></trkpt>
			<trkpt lat="38.0259067" lon="127.0526436"></trkpt>
			<trkpt lat="38.0266311" lon="127.0520609"></trkpt>
			<trkpt lat="38.0258892" lon="127.0534123"></trkpt>
			<trkpt lat="38.0254176" lon="127.0542982"></trkpt>
			<trkpt lat="38.0247824" lon="127.0548711"></trkpt>
			<trkpt lat="38.0240979" lon="127.0550542"></trkpt>
			<trkpt lat="38.0238725" lon="127.0553398"></trkpt>
			<trkpt lat="38.0238556" lon="127.0560157"></trkpt>
			<trkpt lat="38.0239018" lon="127.0563629"></trkpt>
			<trkpt lat="38.0239696" lon="127.0570252"></trkpt>
			<trkpt lat="38.0241547" lon="127.0576127"></trkpt>
			<trkpt lat="38.0243845" lon="127.0582911"></trkpt>
			<trkpt lat="38.0242022" lon="127.058859"></trkpt>
			<trkpt lat="38.0238516" lon="127.0594723"></trkpt>
			<trkpt lat="38.0236165" lon="127.0599807"></trkpt>
		</trkseg>
	</trk>
</gpx>
