<?xml version="1.0" encoding="UTF-8"?>
<gpx creator="GlobalMotionEditor" version="1.1" xmlns="http://www.topografix.com/GPX/1/1">
<metadata>
<name>물소리길 3코스</name>
<desc>Bientus, Inc. - www.ramblr.com - Share your outdoor stories on a map!</desc>
<author>
<name>mulsorigil</name>
</author>
<link href="https://www.ramblr.com/web/mymap/trip/1074409/5726343"></link>
<time>2023-06-28T00:00:00Z</time>
</metadata>
<trk>
<name>물소리길 3코스</name>
<trkseg>
<trkpt lat="37.51358278917253" lon="127.44313106540051"><ele>41.60383605957031</ele><time></time></trkpt>
<trkpt lat="37.513467901257904" lon="127.44357631209698"><ele>43.97535705566406</ele><time></time></trkpt>
<trkpt lat="37.513433860360344" lon="127.44360849860516"><ele>43.93225860595703</ele><time></time></trkpt>
<trkpt lat="37.51329769661488" lon="127.4441932201704"><ele>43.14663314819336</ele><time></time></trkpt>
<trkpt lat="37.51331046197658" lon="127.44427905085888"><ele>43.2851448059082</ele><time></time></trkpt>
<trkpt lat="37.5134423705862" lon="127.44433269503918"><ele>43.95421600341797</ele><time></time></trkpt>
<trkpt lat="37.51401680858721" lon="127.44399138027576"><ele>44.96828460693359</ele><time></time></trkpt>
<trkpt lat="37.514276333588604" lon="127.44386800655153"><ele>44.91730117797852</ele><time></time></trkpt>
<trkpt lat="37.51475693757969" lon="127.44380370187254"><ele>45.26462936401367</ele><time></time></trkpt>
<trkpt lat="37.51483352821953" lon="127.44377151536436"><ele>45.15131759643555</ele><time></time></trkpt>
<trkpt lat="37.51522073525105" lon="127.44343892144651"><ele>44.95819473266602</ele><time></time></trkpt>
<trkpt lat="37.51568453004004" lon="127.44307414102049"><ele>46.61948013305664</ele><time></time></trkpt>
<trkpt lat="37.516023370514624" lon="127.44286981409815"><ele>48.49673080444336</ele><time></time></trkpt>
<trkpt lat="37.51631270760925" lon="127.44290736502435"><ele>50.6925163269043</ele><time></time></trkpt>
<trkpt lat="37.51660206222372" lon="127.44297710245874"><ele>53.19640350341797</ele><time></time></trkpt>
<trkpt lat="37.516742474865005" lon="127.44306829756525"><ele>54.39787292480469</ele><time></time></trkpt>
<trkpt lat="37.51692543639511" lon="127.4430790264013"><ele>55.94122314453125</ele><time></time></trkpt>
<trkpt lat="37.51701478953747" lon="127.44308975523737"><ele>56.6153678894043</ele><time></time></trkpt>
<trkpt lat="37.51719775039991" lon="127.44326141661432"><ele>58.60158157348633</ele><time></time></trkpt>
<trkpt lat="37.5173253972476" lon="127.44341698473718"><ele>60.42190933227539</ele><time></time></trkpt>
<trkpt lat="37.517557185296766" lon="127.44354036635187"><ele>64.18296813964844</ele><time></time></trkpt>
<trkpt lat="37.51768483152962" lon="127.44352427309778"><ele>65.23395538330078</ele><time></time></trkpt>
<trkpt lat="37.51779971295248" lon="127.44345990008142"><ele>65.48424530029297</ele><time></time></trkpt>
<trkpt lat="37.51815286584861" lon="127.44310048407343"><ele>63.19508361816406</ele><time></time></trkpt>
<trkpt lat="37.51830604007906" lon="127.44292882269647"><ele>60.62965774536133</ele><time></time></trkpt>
<trkpt lat="37.51837837224525" lon="127.44269815272119"><ele>58.22701263427734</ele><time></time></trkpt>
<trkpt lat="37.51852303636729" lon="127.44244066065576"><ele>57.92922973632812</ele><time></time></trkpt>
<trkpt lat="37.518803854156545" lon="127.442124159992"><ele>59.33688354492188</ele><time></time></trkpt>
<trkpt lat="37.51889320504968" lon="127.44193640536096"><ele>59.61774063110352</ele><time></time></trkpt>
<trkpt lat="37.518922988656946" lon="127.4416199046972"><ele>58.27583694458008</ele><time></time></trkpt>
<trkpt lat="37.51890171465294" lon="127.44124975985315"><ele>56.2493782043457</ele><time></time></trkpt>
<trkpt lat="37.51910621372634" lon="127.4408259708288"><ele>57.59165573120117</ele><time></time></trkpt>
<trkpt lat="37.51930193379774" lon="127.44072404688623"><ele>60.73441696166992</ele><time></time></trkpt>
<trkpt lat="37.51962277654046" lon="127.44049764756183"><ele>65.6012954711914</ele><time></time></trkpt>
<trkpt lat="37.52018926447594" lon="127.44004742002434"><ele>76.61256408691406</ele><time></time></trkpt>
<trkpt lat="37.52054666077062" lon="127.43976310586876"><ele>83.87580108642578</ele><time></time></trkpt>
<trkpt lat="37.52074663176005" lon="127.4396611819262"><ele>88.4854965209961</ele><time></time></trkpt>
<trkpt lat="37.52091256472741" lon="127.43951097822136"><ele>91.5223388671875</ele><time></time></trkpt>
<trkpt lat="37.5211082800607" lon="127.43930713033623"><ele>94.8586196899414</ele><time></time></trkpt>
<trkpt lat="37.52121464687436" lon="127.43920520639367"><ele>96.47547912597656</ele><time></time></trkpt>
<trkpt lat="37.52132101353638" lon="127.43921593522973"><ele>98.7066650390625</ele><time></time></trkpt>
<trkpt lat="37.521448653330644" lon="127.43929103708214"><ele>101.3797378540039</ele><time></time></trkpt>
<trkpt lat="37.52152523710237" lon="127.43937150335259"><ele>103.1359100341797</ele><time></time></trkpt>
<trkpt lat="37.52158648591338" lon="127.43948415613121"><ele>105.1057281494141</ele><time></time></trkpt>
<trkpt lat="37.521863037540975" lon="127.43953780031151"><ele>109.8643112182617</ele><time></time></trkpt>
<trkpt lat="37.522519746924715" lon="127.43957535123772"><ele>115.4761352539062</ele><time></time></trkpt>
<trkpt lat="37.52276651303187" lon="127.43954852914757"><ele>111.2665481567383</ele><time></time></trkpt>
<trkpt lat="37.52298635935589" lon="127.43941592447361"><ele>107.8606643676758</ele><time></time></trkpt>
<trkpt lat="37.52319057836351" lon="127.43921207658848"><ele>106.2494964599609</ele><time></time></trkpt>
<trkpt lat="37.523474188222174" lon="127.43898564071453"><ele>104.0028228759766</ele><time></time></trkpt>
<trkpt lat="37.52356778805803" lon="127.43900709838665"><ele>101.9892654418945</ele><time></time></trkpt>
<trkpt lat="37.52374647832767" lon="127.43910365791119"><ele>97.54796600341797</ele><time></time></trkpt>
<trkpt lat="37.523891132042024" lon="127.43924313277996"><ele>93.37837982177734</ele><time></time></trkpt>
<trkpt lat="37.52410385758301" lon="127.43929677696026"><ele>89.73275756835938</ele><time></time></trkpt>
<trkpt lat="37.52435912743151" lon="127.43937187881268"><ele>85.4391860961914</ele><time></time></trkpt>
<trkpt lat="37.52455483372383" lon="127.43951135368145"><ele>81.67527770996094</ele><time></time></trkpt>
<trkpt lat="37.52464843220391" lon="127.43958645553387"><ele>80.17842102050781</ele><time></time></trkpt>
<trkpt lat="37.52465694115083" lon="127.43987613410748"><ele>77.25985717773438</ele><time></time></trkpt>
<trkpt lat="37.52457185163806" lon="127.44013362617291"><ele>75.9987564086914</ele><time></time></trkpt>
<trkpt lat="37.5243846543683" lon="127.44065933913983"><ele>77.16687774658203</ele><time></time></trkpt>
<trkpt lat="37.52404429449266" lon="127.44100266189373"><ele>79.94139862060547</ele><time></time></trkpt>
<trkpt lat="37.5237890235669" lon="127.44188242645062"><ele>75.83599853515625</ele><time></time></trkpt>
<trkpt lat="37.523754987377465" lon="127.44207554549969"><ele>75.19048309326172</ele><time></time></trkpt>
<trkpt lat="37.52384858686102" lon="127.44296603889264"><ele>70.61781311035156</ele><time></time></trkpt>
<trkpt lat="37.52374647832767" lon="127.44318061561383"><ele>71.2511978149414</ele><time></time></trkpt>
<trkpt lat="37.52349971546178" lon="127.4433200904826"><ele>74.57037353515625</ele><time></time></trkpt>
<trkpt lat="37.52344192096406" lon="127.44367755799652"><ele>72.55052947998047</ele><time></time></trkpt>
<trkpt lat="37.523246211752266" lon="127.4442139997995"><ele>68.430419921875</ele><time></time></trkpt>
<trkpt lat="37.52270162689585" lon="127.44495428948761"><ele>63.75117111206055</ele><time></time></trkpt>
<trkpt lat="37.523365339159724" lon="127.44558729081513"><ele>59.30960464477539</ele><time></time></trkpt>
<trkpt lat="37.52375675644496" lon="127.44584478288056"><ele>59.90724182128906</ele><time></time></trkpt>
<trkpt lat="37.523705702132894" lon="127.44640268235565"><ele>59.65261840820312</ele><time></time></trkpt>
<trkpt lat="37.523697193077496" lon="127.4468962088144"><ele>59.39570999145508</ele><time></time></trkpt>
<trkpt lat="37.5237227202408" lon="127.44708932786347"><ele>59.47851181030273</ele><time></time></trkpt>
<trkpt lat="37.52366176168639" lon="127.44732888049279"><ele>59.03157806396484</ele><time></time></trkpt>
<trkpt lat="37.52356816196844" lon="127.44759710139428"><ele>58.291259765625</ele><time></time></trkpt>
<trkpt lat="37.523466053051294" lon="127.44788677996789"><ele>57.35486602783203</ele><time></time></trkpt>
<trkpt lat="37.5232192892579" lon="127.44820864504968"><ele>54.97708892822266</ele><time></time></trkpt>
<trkpt lat="37.52279383252493" lon="127.44895966357385"><ele>54.14692306518555</ele><time></time></trkpt>
<trkpt lat="37.52258961243134" lon="127.44930298632775"><ele>54.07843399047852</ele><time></time></trkpt>
<trkpt lat="37.522333007048516" lon="127.45004381228713"><ele>54.31224822998047</ele><time></time></trkpt>
<trkpt lat="37.52201816555952" lon="127.45052660990982"><ele>53.59920883178711</ele><time></time></trkpt>
<trkpt lat="37.52137888044129" lon="127.45140295311357"><ele>53.28496932983398</ele><time></time></trkpt>
<trkpt lat="37.52097894131547" lon="127.45169263168718"><ele>49.86472320556641</ele><time></time></trkpt>
<trkpt lat="37.52072365990153" lon="127.4518750219002"><ele>50.79483413696289</ele><time></time></trkpt>
<trkpt lat="37.52035470354817" lon="127.45260971254304"><ele>51.47632598876953</ele><time></time></trkpt>
<trkpt lat="37.51990370201886" lon="127.45329635805085"><ele>50.93007278442383</ele><time></time></trkpt>
<trkpt lat="37.519835626079505" lon="127.45375769800141"><ele>51.48537826538086</ele><time></time></trkpt>
<trkpt lat="37.519707675618534" lon="127.4541443243107"><ele>49.9847412109375</ele><time></time></trkpt>
<trkpt lat="37.519426861230755" lon="127.45450910473673"><ele>46.62012481689453</ele><time></time></trkpt>
<trkpt lat="37.519239651051755" lon="127.45467003727762"><ele>44.07052612304688</ele><time></time></trkpt>
<trkpt lat="37.51921412235459" lon="127.45502408886759"><ele>43.53317260742188</ele><time></time></trkpt>
<trkpt lat="37.51924449942013" lon="127.45515671438315"><ele>43.75563430786133</ele><time></time></trkpt>
<trkpt lat="37.51924024463814" lon="127.45540884203055"><ele>42.87655639648438</ele><time></time></trkpt>
<trkpt lat="37.519158041316864" lon="127.4556723482958"><ele>41.39053726196289</ele><time></time></trkpt>
<trkpt lat="37.518775109523546" lon="127.4559942133776"><ele>40.16348648071289</ele><time></time></trkpt>
<trkpt lat="37.518426214400925" lon="127.45553287342703"><ele>39.36323547363281</ele><time></time></trkpt>
<trkpt lat="37.5181028467331" lon="127.45509299114859"><ele>37.87876510620117</ele><time></time></trkpt>
<trkpt lat="37.51776245820044" lon="127.45474966839468"><ele>37.32090759277344</ele><time></time></trkpt>
<trkpt lat="37.51739653879608" lon="127.45441707447684"><ele>36.70583343505859</ele><time></time></trkpt>
<trkpt lat="37.51714124512576" lon="127.4542132265917"><ele>36.39955139160156</ele><time></time></trkpt>
<trkpt lat="37.51660512557518" lon="127.45374115780508"><ele>36.01971817016602</ele><time></time></trkpt>
<trkpt lat="37.516400888542776" lon="127.45351585224783"><ele>36.07790374755859</ele><time></time></trkpt>
<trkpt lat="37.51594135317618" lon="127.45289357975638"><ele>36.0262565612793</ele><time></time></trkpt>
<trkpt lat="37.51557542484195" lon="127.45243223980582"><ele>35.09865951538086</ele><time></time></trkpt>
<trkpt lat="37.51527757487316" lon="127.4519601710192"><ele>34.00055694580078</ele><time></time></trkpt>
<trkpt lat="37.514801012450484" lon="127.45143445805228"><ele>35.13716888427734</ele><time></time></trkpt>
<trkpt lat="37.514452098747064" lon="127.45101603344595"><ele>35.13248443603516</ele><time></time></trkpt>
<trkpt lat="37.51409467326189" lon="127.45093020275748"><ele>34.8927116394043</ele><time></time></trkpt>
<trkpt lat="37.51375426644648" lon="127.450844372069"><ele>34.32207107543945</ele><time></time></trkpt>
<trkpt lat="37.513592572665246" lon="127.45083364323294"><ele>33.5601806640625</ele><time></time></trkpt>
<trkpt lat="37.513279571232985" lon="127.45069826893665"><ele>33.40484619140625</ele><time></time></trkpt>
<trkpt lat="37.512968946683415" lon="127.45054806523181"><ele>33.13916778564453</ele><time></time></trkpt>
<trkpt lat="37.51252215568065" lon="127.45024765782215"><ele>33.63398742675781</ele><time></time></trkpt>
<trkpt lat="37.51225833497546" lon="127.45006526760913"><ele>34.43552398681641</ele><time></time></trkpt>
<trkpt lat="37.51182667639508" lon="127.44964029094064"><ele>35.13876342773438</ele><time></time></trkpt>
<trkpt lat="37.51165646800923" lon="127.44953836699807"><ele>34.77449798583984</ele><time></time></trkpt>
<trkpt lat="37.511527310931754" lon="127.4496885707029"><ele>34.17010498046875</ele><time></time></trkpt>
<trkpt lat="37.51131880476929" lon="127.44985486766183"><ele>33.64920425415039</ele><time></time></trkpt>
<trkpt lat="37.5110130688974" lon="127.4499463565636"><ele>33.27736663818359</ele><time></time></trkpt>
<trkpt lat="37.51078754024417" lon="127.44999463632587"><ele>33.02176666259766</ele><time></time></trkpt>
<trkpt lat="37.51030867530372" lon="127.4501448400307"><ele>33.02993011474609</ele><time></time></trkpt>
<trkpt lat="37.51019378234921" lon="127.45032186582569"><ele>32.8480110168457</ele><time></time></trkpt>
<trkpt lat="37.51005761269262" lon="127.45060617998126"><ele>34.24658966064453</ele><time></time></trkpt>
<trkpt lat="37.50985829247338" lon="127.4508809547008"><ele>36.43262100219727</ele><time></time></trkpt>
<trkpt lat="37.50960297301594" lon="127.45105261607776"><ele>39.38797378540039</ele><time></time></trkpt>
<trkpt lat="37.50911129040513" lon="127.45120720594443"><ele>43.88945770263672</ele><time></time></trkpt>
<trkpt lat="37.50875809472285" lon="127.45133595197714"><ele>45.35032653808594</ele><time></time></trkpt>
<trkpt lat="37.508246440862024" lon="127.45164669876624"><ele>44.5568962097168</ele><time></time></trkpt>
<trkpt lat="37.50804643637571" lon="127.45182372456122"><ele>44.56324005126953</ele><time></time></trkpt>
<trkpt lat="37.50748471878229" lon="127.4525210989051"><ele>43.28294372558594</ele><time></time></trkpt>
<trkpt lat="37.507225135739155" lon="127.45276786213446"><ele>40.79885864257812</ele><time></time></trkpt>
<trkpt lat="37.50702938399487" lon="127.45322920208503"><ele>42.15506362915039</ele><time></time></trkpt>
<trkpt lat="37.50667475604898" lon="127.45400347875376"><ele>41.26909637451172</ele><time></time></trkpt>
<trkpt lat="37.50639071767197" lon="127.4546673044483"><ele>44.98413848876953</ele><time></time></trkpt>
<trkpt lat="37.50624177450926" lon="127.45505890696447"><ele>47.37260437011719</ele><time></time></trkpt>
<trkpt lat="37.50594324629378" lon="127.45578560122696"><ele>43.91627883911133</ele><time></time></trkpt>
<trkpt lat="37.50571344676949" lon="127.45657417067734"><ele>44.68207931518555</ele><time></time></trkpt>
<trkpt lat="37.505529709081955" lon="127.45729788285932"><ele>44.2427864074707</ele><time></time></trkpt>
<trkpt lat="37.50536374191045" lon="127.45812936765394"><ele>43.16477966308594</ele><time></time></trkpt>
<trkpt lat="37.50489726123601" lon="127.45823217169398"><ele>39.07994842529297</ele><time></time></trkpt>
<trkpt lat="37.50479512677043" lon="127.4583072735464"><ele>38.04202270507812</ele><time></time></trkpt>
<trkpt lat="37.50452702313352" lon="127.45837701098078"><ele>35.56304931640625</ele><time></time></trkpt>
<trkpt lat="37.50436000924808" lon="127.45885039638866"><ele>33.60402679443359</ele><time></time></trkpt>
<trkpt lat="37.50419403947621" lon="127.45950485538829"><ele>34.72444152832031</ele><time></time></trkpt>
<trkpt lat="37.50392593368071" lon="127.46048893614596"><ele>38.26408386230469</ele><time></time></trkpt>
<trkpt lat="37.503658728020255" lon="127.46147258146956"><ele>33.95206069946289</ele><time></time></trkpt>
<trkpt lat="37.50353105779851" lon="127.46220214232162"><ele>31.61398124694824</ele><time></time></trkpt>
<trkpt lat="37.503484245329176" lon="127.4625240074034"><ele>30.85667610168457</ele><time></time></trkpt>
<trkpt lat="37.5034416885134" lon="127.46288878782943"><ele>31.03905487060547</ele><time></time></trkpt>
<trkpt lat="37.50331827361045" lon="127.46343595846847"><ele>32.44082641601562</ele><time></time></trkpt>
<trkpt lat="37.50301513941903" lon="127.46423143585139"><ele>31.65763473510742</ele><time></time></trkpt>
<trkpt lat="37.50277717266381" lon="127.46497128029506"><ele>30.49809265136719</ele><time></time></trkpt>
<trkpt lat="37.502615455103275" lon="127.46547553558986"><ele>31.45992851257324</ele><time></time></trkpt>
<trkpt lat="37.50222945583322" lon="127.46645832398481"><ele>32.59632110595703</ele><time></time></trkpt>
<trkpt lat="37.50203222434753" lon="127.4671706802539"><ele>35.33952331542969</ele><time></time></trkpt>
<trkpt lat="37.50194710903639" lon="127.46732088395873"><ele>37.06836700439453</ele><time></time></trkpt>
<trkpt lat="37.50190455134443" lon="127.46768029996673"><ele>38.73828125</ele><time></time></trkpt>
<trkpt lat="37.501734320334066" lon="127.46833100304502"><ele>35.84501647949219</ele><time></time></trkpt>
<trkpt lat="37.50156834472526" lon="127.4687226055612"><ele>32.99326324462891</ele><time></time></trkpt>
<trkpt lat="37.50132940213266" lon="127.46947391322904"><ele>30.13848304748535</ele><time></time></trkpt>
<trkpt lat="37.50103575113509" lon="127.47039844642327"><ele>27.3021125793457</ele><time></time></trkpt>
<trkpt lat="37.50085932947277" lon="127.4711597020081"><ele>28.263671875</ele><time></time></trkpt>
<trkpt lat="37.5005911610979" lon="127.47166103376944"><ele>27.72892570495605</ele><time></time></trkpt>
<trkpt lat="37.500480509038944" lon="127.4718702460726"><ele>27.73869705200195</ele><time></time></trkpt>
<trkpt lat="37.50045071807198" lon="127.47206336512167"><ele>27.15110015869141</ele><time></time></trkpt>
<trkpt lat="37.500327298225045" lon="127.47240668787558"><ele>26.0761833190918</ele><time></time></trkpt>
<trkpt lat="37.50035708924125" lon="127.47291094317038"><ele>25.63345718383789</ele><time></time></trkpt>
<trkpt lat="37.500471997335296" lon="127.47353321566183"><ele>25.51732635498047</ele><time></time></trkpt>
<trkpt lat="37.50067627795477" lon="127.47405356421072"><ele>26.22929763793945</ele><time></time></trkpt>
<trkpt lat="37.50082948805258" lon="127.47441834463675"><ele>26.21303176879883</ele><time></time></trkpt>
<trkpt lat="37.50098269783604" lon="127.47463828577597"><ele>27.45487022399902</ele><time></time></trkpt>
<trkpt lat="37.50114867474668" lon="127.47483140482504"><ele>29.45347595214844</ele><time></time></trkpt>
<trkpt lat="37.50113641991835" lon="127.47491902816682"><ele>29.3591194152832</ele><time></time></trkpt>
<trkpt lat="37.5009321405578" lon="127.47512287605196"><ele>27.50324249267578</ele><time></time></trkpt>
<trkpt lat="37.50081206357897" lon="127.47510141837984"><ele>26.4539794921875</ele><time></time></trkpt>
<trkpt lat="37.500437549364115" lon="127.47487611282259"><ele>25.46301078796387</ele><time></time></trkpt>
<trkpt lat="37.50030987363424" lon="127.47499413001924"><ele>27.20279693603516</ele><time></time></trkpt>
<trkpt lat="37.49997522284117" lon="127.47564125447474"><ele>28.90774917602539</ele><time></time></trkpt>
<trkpt lat="37.49985359372713" lon="127.47587728886805"><ele>29.25905799865723</ele><time></time></trkpt>
<trkpt lat="37.499530145591244" lon="127.4762098827859"><ele>29.42837333679199</ele><time></time></trkpt>
<trkpt lat="37.499317350000915" lon="127.47653174786768"><ele>29.25652122497559</ele><time></time></trkpt>
<trkpt lat="37.49894679208525" lon="127.47674465919381"><ele>28.79096794128418</ele><time></time></trkpt>
<trkpt lat="37.49865738767304" lon="127.47704506660348"><ele>27.72376823425293</ele><time></time></trkpt>
<trkpt lat="37.49854673274844" lon="127.47710943961984"><ele>25.81601715087891</ele><time></time></trkpt>
<trkpt lat="37.498461613464094" lon="127.47725964332467"><ele>23.61829376220703</ele><time></time></trkpt>
<trkpt lat="37.4984531015303" lon="127.47765661025888"><ele>23.79081726074219</ele><time></time></trkpt>
<trkpt lat="37.49760156151142" lon="127.47766748267573"><ele>24.96754455566406</ele><time></time></trkpt>
<trkpt lat="37.49746536888609" lon="127.47765675383967"><ele>26.56114959716797</ele><time></time></trkpt>
<trkpt lat="37.49743132069093" lon="127.47744217711848"><ele>26.55693054199219</ele><time></time></trkpt>
<trkpt lat="37.49730363982086" lon="127.47729197341364"><ele>26.25445938110352</ele><time></time></trkpt>
<trkpt lat="37.49721851911955" lon="127.47722760039728"><ele>26.1075267791748</ele><time></time></trkpt>
<trkpt lat="37.49711637414987" lon="127.47722760039728"><ele>26.07332611083984</ele><time></time></trkpt>
<trkpt lat="37.49698018063965" lon="127.47733488875788"><ele>25.90646934509277</ele><time></time></trkpt>
<trkpt lat="37.496929108009276" lon="127.47750655013483"><ele>26.4888973236084</ele><time></time></trkpt>
<trkpt lat="37.49682696264375" lon="127.47763529616755"><ele>26.47765159606934</ele><time></time></trkpt>
<trkpt lat="37.496648207917886" lon="127.47788205939692"><ele>26.59367561340332</ele><time></time></trkpt>
<trkpt lat="37.49659713506048" lon="127.47801080542963"><ele>26.80072784423828</ele><time></time></trkpt>
<trkpt lat="37.49653755001602" lon="127.47817173797053"><ele>26.57318687438965</ele><time></time></trkpt>
<trkpt lat="37.49647139036449" lon="127.47838387251537"><ele>26.76004600524902</ele><time></time></trkpt>
<trkpt lat="37.49632668350182" lon="127.47873792410533"><ele>26.86713409423828</ele><time></time></trkpt>
<trkpt lat="37.49605429335261" lon="127.47917780638377"><ele>27.50575256347656</ele><time></time></trkpt>
<trkpt lat="37.49601173230204" lon="127.47928509474437"><ele>27.87701416015625</ele><time></time></trkpt>
<trkpt lat="37.49602024451407" lon="127.47969279051463"><ele>27.99563407897949</ele><time></time></trkpt>
<trkpt lat="37.49597768344411" lon="127.4800468421046"><ele>27.58196067810059</ele><time></time></trkpt>
<trkpt lat="37.49588431295703" lon="127.48025555537855"><ele>27.54202651977539</ele><time></time></trkpt>
<trkpt lat="37.49567150697728" lon="127.48055596278822"><ele>27.08815574645996</ele><time></time></trkpt>
<trkpt lat="37.49553531083201" lon="127.48067397998487"><ele>26.4548511505127</ele><time></time></trkpt>
<trkpt lat="37.49534696059151" lon="127.48100777082189"><ele>25.67075157165527</ele><time></time></trkpt>
<trkpt lat="37.49532993601296" lon="127.4810828726743"><ele>25.09077835083008</ele><time></time></trkpt>
<trkpt lat="37.49538100973699" lon="127.48151202611669"><ele>24.01196098327637</ele><time></time></trkpt>
<trkpt lat="37.49523903227153" lon="127.48200939586455"><ele>23.71747016906738</ele><time></time></trkpt>
<trkpt lat="37.49493258882079" lon="127.48281405856902"><ele>24.8001594543457</ele><time></time></trkpt>
<trkpt lat="37.49495812582305" lon="127.48294280460173"><ele>24.74930572509766</ele><time></time></trkpt>
<trkpt lat="37.495383741241724" lon="127.48331831386382"><ele>25.15535163879395</ele><time></time></trkpt>
<trkpt lat="37.495383741241724" lon="127.48343633106047"><ele>25.21353340148926</ele><time></time></trkpt>
<trkpt lat="37.49529861835203" lon="127.48367236545378"><ele>24.35611915588379</ele><time></time></trkpt>
<trkpt lat="37.49550291312428" lon="127.48424099376494"><ele>24.56403541564941</ele><time></time></trkpt>
<trkpt lat="37.49556249899424" lon="127.48439119746978"><ele>25.3165225982666</ele><time></time></trkpt>
<trkpt lat="37.495341179809" lon="127.48471306255156"><ele>25.32819366455078</ele><time></time></trkpt>
<trkpt lat="37.49555398673002" lon="127.484970554617"><ele>25.36165428161621</ele><time></time></trkpt>
<trkpt lat="37.49564762158315" lon="127.48509930064971"><ele>24.78684425354004</ele><time></time></trkpt>
<trkpt lat="37.495703912588326" lon="127.48550838474578"><ele>26.25505447387695</ele><time></time></trkpt>
<trkpt lat="37.495678375841074" lon="127.48570150379486"><ele>25.8940372467041</ele><time></time></trkpt>
<trkpt lat="37.495729449326824" lon="127.48644179348297"><ele>25.54548263549805</ele><time></time></trkpt>
<trkpt lat="37.495737961571066" lon="127.4866456413681"><ele>26.16403388977051</ele><time></time></trkpt>
<trkpt lat="37.49569540034022" lon="127.48696750644989"><ele>25.86324691772461</ele><time></time></trkpt>
<trkpt lat="37.49551664290581" lon="127.48738593105621"><ele>26.34663200378418</ele><time></time></trkpt>
<trkpt lat="37.495334409308974" lon="127.4876307270373"><ele>25.86866569519043</ele><time></time></trkpt>
<trkpt lat="37.495181187936474" lon="127.48783457492243"><ele>25.82104682922363</ele><time></time></trkpt>
<trkpt lat="37.494500200255345" lon="127.48821008418452"><ele>25.63447189331055</ele><time></time></trkpt>
<trkpt lat="37.493980942976016" lon="127.48842466090571"><ele>26.11983871459961</ele><time></time></trkpt>
<trkpt lat="37.49342904637666" lon="127.48863610978219"><ele>27.13836097717285</ele><time></time></trkpt>
<trkpt lat="37.493454583893026" lon="127.48886141533944"><ele>26.34796333312988</ele><time></time></trkpt>
<trkpt lat="37.4931566456588" lon="127.48895797486398"><ele>25.455078125</ele><time></time></trkpt>
<trkpt lat="37.492696967194526" lon="127.48915109391305"><ele>26.57468032836914</ele><time></time></trkpt>
<trkpt lat="37.49247563951754" lon="127.4893763994703"><ele>26.53128623962402</ele><time></time></trkpt>
<trkpt lat="37.4923119486552" lon="127.48952660317514"><ele>26.97011566162109</ele><time></time></trkpt>
<trkpt lat="37.49207359451644" lon="127.48994502778146"><ele>27.78899383544922</ele><time></time></trkpt>
<trkpt lat="37.49220128432824" lon="127.48983773942086"><ele>27.60783195495605</ele><time></time></trkpt>
<trkpt lat="37.4923159025572" lon="127.48973045106027"><ele>27.47747039794922</ele><time></time></trkpt>
<trkpt lat="37.492149906014035" lon="127.48994502778146"><ele>27.85952949523926</ele><time></time></trkpt>
<trkpt lat="37.49222651984903" lon="127.49016496892068"><ele>29.15931129455566</ele><time></time></trkpt>
<trkpt lat="37.49242076918953" lon="127.4906131519592"><ele>34.08150100708008</ele><time></time></trkpt>
<trkpt lat="37.49260379033458" lon="127.49094038145901"><ele>35.11774063110352</ele><time></time></trkpt>
<trkpt lat="37.49270168518155" lon="127.49097256796719"><ele>35.40503692626953</ele><time></time></trkpt>
<trkpt lat="37.49279532361077" lon="127.49116032259823"><ele>36.12783813476562</ele><time></time></trkpt>
<trkpt lat="37.49304218799783" lon="127.4910637630737"><ele>36.53770446777344</ele><time></time></trkpt>
</trkseg>
</trk>
</gpx>
